STARLINK-1149           
1 45079U 20006AM  23293.17469960  .00032893  00000+0  22125-2 0  9992
2 45079  53.0530 218.9914 0001438 103.4332 256.6818 15.06473138205370
STARLINK-1153           
1 45080U 20006AN  23293.18301976  .00037353  00000+0  25075-2 0  9990
2 45080  53.0534 218.9658 0001519 112.8504 247.2646 15.06485394205389
STARLINK-1151           
1 45081U 20006AP  23293.82344539  .00016284  00000+0  11099-2 0  9995
2 45081  53.0549 216.0818 0001903 103.5543 256.5658 15.06389267205838
STARLINK-1160           
1 45082U 20006AQ  23293.94508651 -.00001069  00000+0 -52984-4 0  9993
2 45082  53.0540 215.5346 0001615  77.9335 282.1835 15.06349571205491
STARLINK-1190           
1 45083U 20006AR  23293.84466695  .00017071  00000+0  11624-2 0  9996
2 45083  53.0540 235.9958 0000788  93.7044 266.4035 15.06391412205544
STARLINK-1173           
1 45084U 20006AS  23293.89258384 -.00006833  00000+0 -44095-3 0  9991
2 45084  53.0533 195.7800 0001295  64.5957 295.5166 15.06345491205778
STARLINK-1179           
1 45085U 20006AT  23293.88889800  .00003637  00000+0  26325-3 0  9997
2 45085  53.0531 195.7971 0001248 100.5223 259.5906 15.06351828205774
STARLINK-1185           
1 45087U 20006AV  23293.94050595  .00012252  00000+0  84108-3 0  9993
2 45087  53.0540 195.5635 0001267  75.2957 284.8172 15.06351322205780
STARLINK-1183           
1 45088U 20006AW  23293.89626743 -.00003919  00000+0 -24471-3 0  9991
2 45088  53.0533 195.7638 0001144  80.0724 280.0394 15.06346283205771
STARLINK-1136           
1 45089U 20006AX  23293.90365458 -.00010899  00000+0 -71449-3 0  9999
2 45089  53.0521 195.8160 0001603  87.2526 272.8646 15.06369996205785
STARLINK-1176           
1 45090U 20006AY  23293.88058198  .00015325  00000+0  10462-2 0  9992
2 45090  53.0536 195.8249 0001851 122.2008 237.9160 15.06372982205772
STARLINK-1137           
1 45092U 20006BA  23293.92208426  .00019604  00000+0  13322-2 0  9992
2 45092  53.0534 195.6472 0001395  59.3766 300.7360 15.06375756205775
STARLINK-1142           
1 45093U 20006BB  23293.91838700  .00003922  00000+0  28244-3 0  9992
2 45093  53.0527 195.6636 0002269  12.3584 347.7460 15.06347904205774
STARLINK-1146           
1 45094U 20006BC  23293.93218188  .00028612  00000+0  19326-2 0  9990
2 45094  53.0525 195.5934 0001540 120.0099 240.1042 15.06387799205781
STARLINK-1147           
1 45095U 20006BD  23293.93587740  .00024987  00000+0  16914-2 0  9995
2 45095  53.0531 195.5771 0001572 117.8127 242.3021 15.06378857205785
STARLINK-1152           
1 45096U 20006BE  23293.92944675  .00008549  00000+0  59285-3 0  9994
2 45096  53.0525 195.6149 0001390  85.3110 274.8038 15.06352193205770
STARLINK-1184           
1 45098U 20006BG  23293.91101317  .00014685  00000+0  10035-2 0  9990
2 45098  53.0517 195.6971 0001364  81.2363 278.8780 15.06368877205776
STARLINK-1186           
1 45099U 20006BH  23293.87784223 -.00003770  00000+0 -23468-3 0  9999
2 45099  53.0527 195.8475 0001257  54.9287 305.1819 15.06348000205775
STARLINK-1193           
1 45100U 20006BJ  23293.90732854  .00030137  00000+0  20336-2 0  9994
2 45100  53.0531 195.7131 0001909 140.4195 219.6934 15.06397765205773
STARLINK-1194           
1 45101U 20006BK  23293.90269635  .00029288  00000+0  19773-2 0  9995
2 45101  53.0528 195.7244 0001980 135.7856 224.3291 15.06393225205771
STARLINK-1195           
1 45102U 20006BL  23293.92575411  .00016181  00000+0  11033-2 0  9999
2 45102  53.0536 195.6291 0001202  76.5478 283.5645 15.06378515205776
STARLINK-1196           
1 45103U 20006BM  23293.93072893  .00031692  00000+0  12580-2 0  9999
2 45103  53.0744 177.2534 0002053 152.3667 207.7440 15.25095250206047
STARLINK-1138           
1 45178U 20012A   23293.41343085  .00005598  00000+0  39447-3 0  9993
2 45178  53.0562 357.9266 0001664 103.3173 256.8001 15.06396955203456
STARLINK-1143           
1 45179U 20012B   23293.54884933  .00030443  00000+0  20554-2 0  9995
2 45179  53.0554 357.3147 0001460  93.4746 266.6410 15.06371912203537
STARLINK-1200           
1 45181U 20012D   23293.60139704  .00022796  00000+0  15454-2 0  9999
2 45181  53.0548 357.0888 0001195  92.8970 267.2156 15.06373844203540
STARLINK-1201           
1 45182U 20012E   23293.35628781  .00016421  00000+0  11191-2 0  9992
2 45182  53.0544 338.1918 0001540  89.4179 270.6986 15.06387493203632
STARLINK-1202           
1 45183U 20012F   23293.50556150  .00026034  00000+0  17618-2 0  9991
2 45183  53.0545 357.5184 0001415 109.6585 250.4557 15.06366975203532
STARLINK-1205           
1 45184U 20012G   23293.42999871 -.00003440  00000+0 -21219-3 0  9995
2 45184  53.0561 337.8520 0001378  90.3592 269.7555 15.06389500202830
STARLINK-1216           
1 45185U 20012H   23293.56453788  .00003383  00000+0  24593-3 0  9995
2 45185  53.0547 357.2537 0001395  87.2048 272.9101 15.06390070203488
STARLINK-1224           
1 45186U 20012J   23293.44658507  .00015976  00000+0  10899-2 0  9993
2 45186  53.0550 357.7842 0001575  84.3890 275.7278 15.06368170203460
STARLINK-1225           
1 45187U 20012K   23293.58296723  .00023879  00000+0  16183-2 0  9990
2 45187  53.0541 357.1710 0001122  94.1321 265.9796 15.06359357203536
STARLINK-1228           
1 45188U 20012L   23293.87785021  .00026555  00000+0  17951-2 0  9995
2 45188  53.0546 315.8459 0001531  83.7837 276.3326 15.06396444204098
STARLINK-1230           
1 45189U 20012M   23293.45396112 -.00000883  00000+0 -40376-4 0  9996
2 45189  53.0540 357.7523 0001475  85.9607 274.1550 15.06385186200740
STARLINK-1234           
1 45190U 20012N   23293.47239434  .00024816  00000+0  16798-2 0  9992
2 45190  53.0542 317.6669 0001550  92.1385 267.9781 15.06383370203985
STARLINK-1236           
1 45191U 20012P   23293.59402385  .00023607  00000+0  15998-2 0  9991
2 45191  53.0555 357.1209 0001653 105.7023 254.4148 15.06367333200754
STARLINK-1237           
1 45192U 20012Q   23293.56822840  .00031502  00000+0  21261-2 0  9994
2 45192  53.0542 357.2378 0001501  90.9282 269.1879 15.06369261203549
STARLINK-1239           
1 45193U 20012R   23293.55717246  .00025747  00000+0  17423-2 0  9996
2 45193  53.0551 357.2896 0001666  99.4699 260.6478 15.06373743203487
STARLINK-1240           
1 45194U 20012S   23293.56085531  .00025778  00000+0  17444-2 0  9990
2 45194  53.0556 357.2670 0001493  86.7200 273.3960 15.06373015203432
STARLINK-1244           
1 45196U 20012U   23293.60875309  .00016610  00000+0  11314-2 0  9992
2 45196  53.0561 357.0559 0001040  83.1948 276.9160 15.06398069203596
STARLINK-1269           
1 45197U 20012V   23293.46501434  .00014171  00000+0  96904-3 0  9991
2 45197  53.0550 357.6995 0001462  98.4996 261.6159 15.06372136203490
STARLINK-1154           
1 45198U 20012W   23293.52215542  .00027921  00000+0  18870-2 0  9993
2 45198  53.0538 337.4449 0001549  91.6010 268.5156 15.06378650203754
STARLINK-1197           
1 45199U 20012X   23293.52583596 -.00000472  00000+0 -12772-4 0  9992
2 45199  53.0558 337.4297 0001611  88.4453 271.6721 15.06398600203810
STARLINK-1199           
1 45201U 20012Z   23293.53320797 -.00000941  00000+0 -44258-4 0  9994
2 45201  53.0563 337.3932 0001897 101.1171 259.0031 15.06390739203810
STARLINK-1206           
1 45204U 20012AC  23293.35996808  .00011312  00000+0  77754-3 0  9997
2 45204  53.0565 338.1716 0001687 104.5979 255.5197 15.06376843202851
STARLINK-1208           
1 45205U 20012AD  23293.51477771  .00027515  00000+0  18605-2 0  9990
2 45205  53.0551 337.4736 0001538  89.7989 270.3176 15.06367909203835
STARLINK-1209           
1 45206U 20012AE  23293.47607903  .00026857  00000+0  18160-2 0  9992
2 45206  53.0555 317.6494 0001497  98.3152 261.8007 15.06380280203131
STARLINK-1210           
1 45207U 20012AF  23293.53689442  .00024924  00000+0  16873-2 0  9990
2 45207  53.0544 337.3785 0001565 102.3605 257.7559 15.06376651203815
STARLINK-1211           
1 45208U 20012AG  23293.87275684 -.00002094  00000+0 -88058-5 0  9990
2 45208  52.9959 245.3041 0000974  81.2692 278.8437 15.76712797204992
STARLINK-1219           
1 45210U 20012AJ  23293.54058225 -.00001695  00000+0 -94923-4 0  9990
2 45210  53.0546 337.3618 0001769 111.9610 248.1567 15.06390247202879
STARLINK-1231           
1 45212U 20012AL  23293.50740545  .00026198  00000+0  17727-2 0  9999
2 45212  53.0547 337.5094 0001796  72.1601 287.9584 15.06366829203768
STARLINK-1232           
1 45213U 20012AM  23293.91667824  .00139108  00000+0  80144-3 0  9993
2 45213  53.0421 147.1774 0002499 168.3632  58.1497 15.77785523  6017
STARLINK-1233           
1 45214U 20012AN  23293.41431144  .00022263  00000+0  15094-2 0  9997
2 45214  53.0555 337.9159 0001183 106.9118 253.2001 15.06384243203797
STARLINK-1245           
1 45215U 20012AP  23293.54426590 -.00000268  00000+0  87611-6 0  9991
2 45215  53.0552 337.3412 0001379 101.8577 258.2567 15.06394588203752
STARLINK-1271           
1 45217U 20012AR  23293.51846837  .00028626  00000+0  19340-2 0  9997
2 45217  53.0544 337.4602 0001530  91.9286 268.1879 15.06378802203816
STARLINK-1187           
1 45219U 20012AT  23293.51662710  .00020360  00000+0  13825-2 0  9994
2 45219  53.0548 317.4756 0001707  84.1306 275.9877 15.06381558204102
STARLINK-1189           
1 45221U 20012AV  23293.45396216 -.00000632  00000+0 -23520-4 0  9992
2 45221  53.0563 317.7519 0001743  90.5420 269.5769 15.06387707204088
STARLINK-1191           
1 45222U 20012AW  23293.46133300  .00024497  00000+0  16589-2 0  9995
2 45222  53.0539 317.7170 0001557  81.9900 278.1266 15.06373595204083
STARLINK-1212           
1 45223U 20012AX  23293.47361379  .00000185  00000+0  32447-4 0  9997
2 45223  53.0549 318.2480 0001509  95.8420 264.2740 15.04762829204086
STARLINK-1215           
1 45225U 20012AZ  23293.30283501 -.00005931  00000+0 -37973-3 0  9995
2 45225  53.0557 318.4299 0001881 102.7936 257.3263 15.06385779204013
